[{"OBJECT_NAME":"STARLINK-1553","OBJECT_ID":"2020-062Z","EPOCH":"2026-03-09T21:21:38.690496","MEAN_MOTION":15.36665572,"ECCENTRICITY":0.00049977,"INCLINATION":53.0381,"RA_OF_ASC_NODE":305.9588,"ARG_OF_PERICENTER":144.0342,"MEAN_ANOMALY":216.0997,"EPHEMERIS_TYPE":0,"CLASSIFICATION_TYPE":"U","NORAD_CAT_ID":46348,"ELEMENT_SET_NO":999,"REV_AT_EPOCH":30532,"BSTAR":0.00060638819,"MEAN_MOTION_DOT":0.00021714,"MEAN_MOTION_DDOT":0},{"OBJECT_NAME":"OBJECT C","OBJECT_ID":"2024-153C","EPOCH":"2026-03-09T22:45:52.192800","MEAN_MOTION":15.36401606,"ECCENTRICITY":0.00103806,"INCLINATION":97.6622,"RA_OF_ASC_NODE":206.7519,"ARG_OF_PERICENTER":145.6814,"MEAN_ANOMALY":214.5102,"EPHEMERIS_TYPE":0,"CLASSIFICATION_TYPE":"U","NORAD_CAT_ID":60747,"ELEMENT_SET_NO":999,"REV_AT_EPOCH":8488,"BSTAR":0.0009101215,"MEAN_MOTION_DOT":0.00032382,"MEAN_MOTION_DDOT":0}]
